ONEWEB-0238             
1 48784U 21045T   26046.16575004  .00000083  00000+0  18659-3 0  9991
2 48784  87.8972 283.5335 0001984  88.9046 271.2312 13.15548768228334
ONEWEB-0240             
1 48785U 21045U   26046.18700368  .00000141  00000+0  34054-3 0  9999
2 48785  87.8978 283.5295 0001596 100.7913 259.3397 13.15546624228363
ONEWEB-0246             
1 48786U 21045V   26046.18146164  .00000152  00000+0  37084-3 0  9996
2 48786  87.8977 283.5405 0001408  84.3589 275.7702 13.15549522228232
ONEWEB-0210             
1 48787U 21045W   26046.15609625 -.00000029  00000+0 -11133-3 0  9992
2 48787  87.8977 283.5422 0000637  81.6326 278.4876 13.15548210228273
ONEWEB-0214             
1 48788U 21045X   26046.16481553  .00000044  00000+0  83494-4 0  9997
2 48788  87.8980 283.5355 0001165  76.6481 283.4779 13.15549785228249
ONEWEB-0221             
1 48789U 21045Y   26046.17195307  .00000169  00000+0  41512-3 0  9990
2 48789  87.8976 283.5452 0001430  92.0435 268.0860 13.15549454228332
ONEWEB-0213             
1 48790U 21045Z   26046.16084851 -.00000095  00000+0 -28725-3 0  9993
2 48790  87.8976 283.5508 0001263  91.6146 268.5129 13.15549519228395
ONEWEB-0212             
1 48791U 21045AA  26046.21393812  .00000032  00000+0  50013-4 0  9995
2 48791  87.8979 283.5349 0001573  85.0331 275.0979 13.15549294228395
ONEWEB-0227             
1 48792U 21045AB  26046.21315264 -.00000072  00000+0 -22648-3 0  9999
2 48792  87.8976 283.5393 0001538  88.3282 271.8025 13.15548730228349
ONEWEB-0226             
1 48793U 21045AC  26046.13074641  .00000037  00000+0  65462-4 0  9993
2 48793  87.8969 283.5652 0001207  88.6242 271.5026 13.15550453228301
ONEWEB-0224             
1 48794U 21045AD  26046.17036202  .00000060  00000+0  12416-3 0  9995
2 48794  87.8968 283.5932 0002093 108.7074 251.4284 13.15549727228230
ONEWEB-0233             
1 48795U 21045AE  26046.17498707  .00000139  00000+0  33501-3 0  9993
2 48795  87.8963 283.6021 0001430  96.7373 263.3920 13.15549805228256
ONEWEB-0190             
1 48796U 21045AF  26046.16243289 -.00000230  00000+0 -64598-3 0  9990
2 48796  87.8966 283.5652 0001021 111.3485 248.7755 13.15548829228329
ONEWEB-0236             
1 48797U 21045AG  26046.17987695  .00000209  00000+0  52217-3 0  9997
2 48797  87.8964 283.5739 0001691  86.2875 273.8448 13.15549354228210
ONEWEB-0248             
1 48798U 21045AH  26046.19255123  .00000212  00000+0  52936-3 0  9996
2 48798  87.8977 283.5418 0001550 106.1173 254.0128 13.15549963228375
ONEWEB-0225             
1 48799U 21045AJ  26046.21473322 -.00000008  00000+0 -54797-4 0  9996
2 48799  87.8969 283.5552 0001128 105.9317 254.1938 13.15550074228380
