[{"OBJECT_NAME":"ONEWEB-0238","OBJECT_ID":"2021-045T","EPOCH":"2026-02-15T03:58:40.803456","MEAN_MOTION":13.15548768,"ECCENTRICITY":0.00019847,"INCLINATION":87.8972,"RA_OF_ASC_NODE":283.5335,"ARG_OF_PERICENTER":88.9046,"MEAN_ANOMALY":271.2312,"EPHEMERIS_TYPE":0,"CLASSIFICATION_TYPE":"U","NORAD_CAT_ID":48784,"ELEMENT_SET_NO":999,"REV_AT_EPOCH":22833,"BSTAR":0.00018659147,"MEAN_MOTION_DOT":8.3e-7,"MEAN_MOTION_DDOT":0},{"OBJECT_NAME":"ONEWEB-0240","OBJECT_ID":"2021-045U","EPOCH":"2026-02-15T04:29:17.117952","MEAN_MOTION":13.15546624,"ECCENTRICITY":0.00015969,"INCLINATION":87.8978,"RA_OF_ASC_NODE":283.5295,"ARG_OF_PERICENTER":100.7913,"MEAN_ANOMALY":259.3397,"EPHEMERIS_TYPE":0,"CLASSIFICATION_TYPE":"U","NORAD_CAT_ID":48785,"ELEMENT_SET_NO":999,"REV_AT_EPOCH":22836,"BSTAR":0.00034053754,"MEAN_MOTION_DOT":1.41e-6,"MEAN_MOTION_DDOT":0},{"OBJECT_NAME":"ONEWEB-0246","OBJECT_ID":"2021-045V","EPOCH":"2026-02-15T04:21:18.285696","MEAN_MOTION":13.15549522,"ECCENTRICITY":0.00014085,"INCLINATION":87.8977,"RA_OF_ASC_NODE":283.5405,"ARG_OF_PERICENTER":84.3589,"MEAN_ANOMALY":275.7702,"EPHEMERIS_TYPE":0,"CLASSIFICATION_TYPE":"U","NORAD_CAT_ID":48786,"ELEMENT_SET_NO":999,"REV_AT_EPOCH":22823,"BSTAR":0.00037084417,"MEAN_MOTION_DOT":1.52e-6,"MEAN_MOTION_DDOT":0},{"OBJECT_NAME":"ONEWEB-0210","OBJECT_ID":"2021-045W","EPOCH":"2026-02-15T03:44:46.716000","MEAN_MOTION":13.1554821,"ECCENTRICITY":6.372e-5,"INCLINATION":87.8977,"RA_OF_ASC_NODE":283.5422,"ARG_OF_PERICENTER":81.6326,"MEAN_ANOMALY":278.4876,"EPHEMERIS_TYPE":0,"CLASSIFICATION_TYPE":"U","NORAD_CAT_ID":48787,"ELEMENT_SET_NO":999,"REV_AT_EPOCH":22827,"BSTAR":-0.00011132775,"MEAN_MOTION_DOT":-2.9e-7,"MEAN_MOTION_DDOT":0},{"OBJECT_NAME":"ONEWEB-0214","OBJECT_ID":"2021-045X","EPOCH":"2026-02-15T03:57:20.061792","MEAN_MOTION":13.15549785,"ECCENTRICITY":0.00011652,"INCLINATION":87.898,"RA_OF_ASC_NODE":283.5355,"ARG_OF_PERICENTER":76.6481,"MEAN_ANOMALY":283.4779,"EPHEMERIS_TYPE":0,"CLASSIFICATION_TYPE":"U","NORAD_CAT_ID":48788,"ELEMENT_SET_NO":999,"REV_AT_EPOCH":22824,"BSTAR":8.3494295e-5,"MEAN_MOTION_DOT":4.4e-7,"MEAN_MOTION_DDOT":0},{"OBJECT_NAME":"ONEWEB-0221","OBJECT_ID":"2021-045Y","EPOCH":"2026-02-15T04:07:36.745248","MEAN_MOTION":13.15549454,"ECCENTRICITY":0.00014306,"INCLINATION":87.8976,"RA_OF_ASC_NODE":283.5452,"ARG_OF_PERICENTER":92.0435,"MEAN_ANOMALY":268.086,"EPHEMERIS_TYPE":0,"CLASSIFICATION_TYPE":"U","NORAD_CAT_ID":48789,"ELEMENT_SET_NO":999,"REV_AT_EPOCH":22833,"BSTAR":0.000415117,"MEAN_MOTION_DOT":1.69e-6,"MEAN_MOTION_DDOT":0},{"OBJECT_NAME":"ONEWEB-0213","OBJECT_ID":"2021-045Z","EPOCH":"2026-02-15T03:51:37.311264","MEAN_MOTION":13.15549519,"ECCENTRICITY":0.00012639,"INCLINATION":87.8976,"RA_OF_ASC_NODE":283.5508,"ARG_OF_PERICENTER":91.6146,"MEAN_ANOMALY":268.5129,"EPHEMERIS_TYPE":0,"CLASSIFICATION_TYPE":"U","NORAD_CAT_ID":48790,"ELEMENT_SET_NO":999,"REV_AT_EPOCH":22839,"BSTAR":-0.00028724759,"MEAN_MOTION_DOT":-9.5e-7,"MEAN_MOTION_DDOT":0},{"OBJECT_NAME":"ONEWEB-0212","OBJECT_ID":"2021-045AA","EPOCH":"2026-02-15T05:08:04.253568","MEAN_MOTION":13.15549294,"ECCENTRICITY":0.00015737,"INCLINATION":87.8979,"RA_OF_ASC_NODE":283.5349,"ARG_OF_PERICENTER":85.0331,"MEAN_ANOMALY":275.0979,"EPHEMERIS_TYPE":0,"CLASSIFICATION_TYPE":"U","NORAD_CAT_ID":48791,"ELEMENT_SET_NO":999,"REV_AT_EPOCH":22839,"BSTAR":5.0013057e-5,"MEAN_MOTION_DOT":3.2e-7,"MEAN_MOTION_DDOT":0},{"OBJECT_NAME":"ONEWEB-0227","OBJECT_ID":"2021-045AB","EPOCH":"2026-02-15T05:06:56.388096","MEAN_MOTION":13.1554873,"ECCENTRICITY":0.00015389,"INCLINATION":87.8976,"RA_OF_ASC_NODE":283.5393,"ARG_OF_PERICENTER":88.3282,"MEAN_ANOMALY":271.8025,"EPHEMERIS_TYPE":0,"CLASSIFICATION_TYPE":"U","NORAD_CAT_ID":48792,"ELEMENT_SET_NO":999,"REV_AT_EPOCH":22834,"BSTAR":-0.00022647588,"MEAN_MOTION_DOT":-7.2e-7,"MEAN_MOTION_DDOT":0},{"OBJECT_NAME":"ONEWEB-0226","OBJECT_ID":"2021-045AC","EPOCH":"2026-02-15T03:08:16.489824","MEAN_MOTION":13.15550453,"ECCENTRICITY":0.00012072,"INCLINATION":87.8969,"RA_OF_ASC_NODE":283.5652,"ARG_OF_PERICENTER":88.6242,"MEAN_ANOMALY":271.5026,"EPHEMERIS_TYPE":0,"CLASSIFICATION_TYPE":"U","NORAD_CAT_ID":48793,"ELEMENT_SET_NO":999,"REV_AT_EPOCH":22830,"BSTAR":6.5462088e-5,"MEAN_MOTION_DOT":3.7e-7,"MEAN_MOTION_DDOT":0},{"OBJECT_NAME":"ONEWEB-0224","OBJECT_ID":"2021-045AD","EPOCH":"2026-02-15T04:05:19.278528","MEAN_MOTION":13.15549727,"ECCENTRICITY":0.0002093,"INCLINATION":87.8968,"RA_OF_ASC_NODE":283.5932,"ARG_OF_PERICENTER":108.7074,"MEAN_ANOMALY":251.4284,"EPHEMERIS_TYPE":0,"CLASSIFICATION_TYPE":"U","NORAD_CAT_ID":48794,"ELEMENT_SET_NO":999,"REV_AT_EPOCH":22823,"BSTAR":0.00012415588,"MEAN_MOTION_DOT":6.0e-7,"MEAN_MOTION_DDOT":0},{"OBJECT_NAME":"ONEWEB-0233","OBJECT_ID":"2021-045AE","EPOCH":"2026-02-15T04:11:58.882848","MEAN_MOTION":13.15549805,"ECCENTRICITY":0.00014306,"INCLINATION":87.8963,"RA_OF_ASC_NODE":283.6021,"ARG_OF_PERICENTER":96.7373,"MEAN_ANOMALY":263.392,"EPHEMERIS_TYPE":0,"CLASSIFICATION_TYPE":"U","NORAD_CAT_ID":48795,"ELEMENT_SET_NO":999,"REV_AT_EPOCH":22825,"BSTAR":0.00033500936,"MEAN_MOTION_DOT":1.39e-6,"MEAN_MOTION_DDOT":0},{"OBJECT_NAME":"ONEWEB-0190","OBJECT_ID":"2021-045AF","EPOCH":"2026-02-15T03:53:54.201696","MEAN_MOTION":13.15548829,"ECCENTRICITY":0.00010216,"INCLINATION":87.8966,"RA_OF_ASC_NODE":283.5652,"ARG_OF_PERICENTER":111.3485,"MEAN_ANOMALY":248.7755,"EPHEMERIS_TYPE":0,"CLASSIFICATION_TYPE":"U","NORAD_CAT_ID":48796,"ELEMENT_SET_NO":999,"REV_AT_EPOCH":22832,"BSTAR":-0.00064598492,"MEAN_MOTION_DOT":-2.3e-6,"MEAN_MOTION_DDOT":0},{"OBJECT_NAME":"ONEWEB-0236","OBJECT_ID":"2021-045AG","EPOCH":"2026-02-15T04:19:01.368480","MEAN_MOTION":13.15549354,"ECCENTRICITY":0.00016915,"INCLINATION":87.8964,"RA_OF_ASC_NODE":283.5739,"ARG_OF_PERICENTER":86.2875,"MEAN_ANOMALY":273.8448,"EPHEMERIS_TYPE":0,"CLASSIFICATION_TYPE":"U","NORAD_CAT_ID":48797,"ELEMENT_SET_NO":999,"REV_AT_EPOCH":22821,"BSTAR":0.00052217335,"MEAN_MOTION_DOT":2.09e-6,"MEAN_MOTION_DDOT":0},{"OBJECT_NAME":"ONEWEB-0248","OBJECT_ID":"2021-045AH","EPOCH":"2026-02-15T04:37:16.426272","MEAN_MOTION":13.15549963,"ECCENTRICITY":0.00015508,"INCLINATION":87.8977,"RA_OF_ASC_NODE":283.5418,"ARG_OF_PERICENTER":106.1173,"MEAN_ANOMALY":254.0128,"EPHEMERIS_TYPE":0,"CLASSIFICATION_TYPE":"U","NORAD_CAT_ID":48798,"ELEMENT_SET_NO":999,"REV_AT_EPOCH":22837,"BSTAR":0.0005293615,"MEAN_MOTION_DOT":2.12e-6,"MEAN_MOTION_DDOT":0},{"OBJECT_NAME":"ONEWEB-0225","OBJECT_ID":"2021-045AJ","EPOCH":"2026-02-15T05:09:12.950208","MEAN_MOTION":13.15550074,"ECCENTRICITY":0.00011281,"INCLINATION":87.8969,"RA_OF_ASC_NODE":283.5552,"ARG_OF_PERICENTER":105.9317,"MEAN_ANOMALY":254.1938,"EPHEMERIS_TYPE":0,"CLASSIFICATION_TYPE":"U","NORAD_CAT_ID":48799,"ELEMENT_SET_NO":999,"REV_AT_EPOCH":22838,"BSTAR":-5.4796746e-5,"MEAN_MOTION_DOT":-8.0e-8,"MEAN_MOTION_DDOT":0}]
